NORAD_CAT_ID,OBJECT_NAME,OBJECT_TYPE,EPOCH,MEAN_MOTION,ECCENTRICITY,INCLINATION,RA_OF_ASC_NODE,ARG_OF_PERICENTER,MEAN_ANOMALY,BSTAR,MEAN_MOTION_DOT,MEAN_MOTION_DDOT,TLE_LINE0,TLE_LINE1,TLE_LINE2,SEMIMAJOR_AXIS,PERIOD,APOGEE,PERIGEE,DECAYED
51980.0,STARLINK-3649,PAYLOAD,2022-05-12 22:00:00,15.15022036,0.0001409999999999,53.2175,189.5952,71.8316,175.8537,-0.039273,-0.00693432,0.0,0 STARLINK-3649,1 51980U 22025AA  22132.91667824 -.00693432  00000-0 -39273-1 0  9991,2 51980  53.2175 189.5952 0001410  71.8316 175.8537 15.15022036  1304,6899.049,95.048,521.886,519.941,0.0
51980.0,STARLINK-3649,PAYLOAD,2022-05-13 04:00:00,15.14656137,0.0001528,53.2176,188.4601,63.754,108.0322,-0.039689,-0.00693531,0.0,0 STARLINK-3649,1 51980U 22025AA  22133.16667824 -.00693531  00000-0 -39689-1 0  9990,2 51980  53.2176 188.4601 0001528  63.7540 108.0322 15.14656137 11320,6900.16,95.071,523.0790000000002,520.97,0.0
51980.0,STARLINK-3649,PAYLOAD,2022-05-13 14:00:01,15.14042766,0.0001416999999999,53.2175,186.5719,66.3517,218.2029,-0.040085,-0.00688698,0.0,0 STARLINK-3649,1 51980U 22025AA  22133.58334491 -.00688698  00000-0 -40085-1 0  9997,2 51980  53.2175 186.5719 0001417  66.3517 218.2029 15.14042766  1300,6902.023,95.11,524.866,522.91,0.0
51980.0,STARLINK-3649,PAYLOAD,2022-05-13 22:00:00,15.1355671,0.0001336,53.2175,185.0594,70.0149,232.0948,-0.040893,-0.00692706,0.0,0 STARLINK-3649,1 51980U 22025AA  22133.91667824 -.00692706  00000-0 -40893-1 0  9995,2 51980  53.2175 185.0594 0001336  70.0149 232.0948 15.13556710  1300,6903.501,95.14,526.288,524.443,0.0
51980.0,STARLINK-3649,PAYLOAD,2022-05-14 04:00:00,15.13191318,0.0001519,53.2175,183.927,66.0495,158.8407,-0.041362,-0.00693436,0.0,0 STARLINK-3649,1 51980U 22025AA  22134.16667824 -.00693436  00000-0 -41362-1 0  9996,2 51980  53.2175 183.9270 0001519  66.0495 158.8407 15.13191318 11473,6904.611999999999,95.163,527.526,525.428,0.0
51980.0,STARLINK-3649,PAYLOAD,2022-05-14 14:00:01,15.12578421,0.0001254,53.2174,182.0429,79.3836,256.0749,-0.041818,-0.00689356,0.0,0 STARLINK-3649,1 51980U 22025AA  22134.58334491 -.00689356  00000-0 -41818-1 0  9995,2 51980  53.2174 182.0429 0001254  79.3836 256.0749 15.12578421  1304,6906.477,95.202,529.2080000000002,527.476,0.0
51980.0,STARLINK-3649,PAYLOAD,2022-05-14 22:00:00,15.12091147,0.0001272,53.2175,180.5337,69.4214,281.8326,-0.042541,-0.00691603,0.0,0 STARLINK-3649,1 51980U 22025AA  22134.91667824 -.00691603  00000-0 -42541-1 0  9993,2 51980  53.2175 180.5337 0001272  69.4214 281.8326 15.12091147  1308,6907.9609999999975,95.232,530.7040000000002,528.947,0.0
51980.0,STARLINK-3649,PAYLOAD,2022-05-15 04:00:00,15.11726232,0.0001501,53.2175,179.40400000000002,63.0944,209.6197,-0.043069,-0.00693001,0.0,0 STARLINK-3649,1 51980U 22025AA  22135.16667824 -.00693001  00000-0 -43069-1 0  9991,2 51980  53.2175 179.4040 0001501  63.0944 209.6197 15.11726232 11620,6909.071999999999,95.255,531.974,529.9,0.0
51980.0,STARLINK-3649,PAYLOAD,2022-05-15 14:00:01,15.11113756,0.0001252999999999,53.2174,177.5241,72.7773,308.3677,-0.043586,-0.00689646,0.0,0 STARLINK-3649,1 51980U 22025AA  22135.58335648 -.00689646  00000-0 -43586-1 0  9997,2 51980  53.2174 177.5241 0001253  72.7773 308.3677 15.11113756  1307,6910.939,95.294,533.67,531.938,0.0
51980.0,STARLINK-3649,PAYLOAD,2022-05-15 22:00:00,15.10625832,0.0001329,53.2175,176.0184,60.099,335.0186,-0.044266,-0.00690884,0.0,0 STARLINK-3649,1 51980U 22025AA  22135.91667824 -.00690884  00000-0 -44266-1 0  9990,2 51980  53.2175 176.0184 0001329  60.0990 335.0186 15.10625832  1307,6912.427,95.325,535.211,533.374,0.0
51980.0,STARLINK-3649,PAYLOAD,2022-05-16 04:00:00,15.10261329,0.0001464,53.2175,174.8912,60.5774,254.6801,-0.044854,-0.00692887,0.0,0 STARLINK-3649,1 51980U 22025AA  22136.16667824 -.00692887  00000-0 -44854-1 0  9996,2 51980  53.2175 174.8912 0001464  60.5774 254.6801 15.10261329 11776,6913.5390000000025,95.348,536.4169999999998,534.3919999999998,0.0
51980.0,STARLINK-3649,PAYLOAD,2022-05-16 14:00:01,15.09649731,0.0001384,53.2173,173.016,58.1898,3.2349,-0.045526,-0.00691547,0.0,0 STARLINK-3649,1 51980U 22025AA  22136.58334491 -.00691547  00000-0 -45526-1 0  9992,2 51980  53.2173 173.0160 0001384  58.1898   3.2349 15.09649731  1309,6915.406,95.386,538.229,536.314,0.0
51980.0,STARLINK-3649,PAYLOAD,2022-05-16 22:00:00,15.090303400000002,0.0001398,53.2174,171.515,59.7765,13.945,-0.018033,-0.00277832,0.0,0 STARLINK-3649,1 51980U 22025AA  22136.91667824 -.00277832  00000-0 -18033-1 0  9998,2 51980  53.2174 171.5150 0001398  59.7765  13.9450 15.09030340  1308,6917.299,95.426,540.131,538.197,0.0
51980.0,STARLINK-3649,PAYLOAD,2022-05-17 04:00:00,15.08838088,0.0001501999999999,53.2175,170.3923,60.0139,292.5082,-9.9275e-05,-1.868e-05,0.0,0 STARLINK-3649,1 51980U 22025AA  22137.16667824 -.00001868  00000-0 -99275-4 0  9990,2 51980  53.2175 170.3923 0001502  60.0139 292.5082 15.08838088 11920,6917.886,95.438,540.79,538.712,0.0
51980.0,STARLINK-3649,PAYLOAD,2022-05-17 12:00:00,15.08844718,0.0001652,53.2122,168.9079,56.8689,307.3637,0.0035121,0.00056059,0.0,0 STARLINK-3649,1 51980U 22025AA  22137.50001157  .00056059  00000-0  35121-2 0  9997,2 51980  53.2122 168.9079 0001652  56.8689 307.3637 15.08844718 11979,6917.866,95.437,540.874,538.5880000000002,0.0
51980.0,STARLINK-3649,PAYLOAD,2022-05-17 14:00:01,15.08854708,0.0001633,53.2117,168.5335,55.2996,41.8987,0.0030816,0.00049118,0.0,0 STARLINK-3649,1 51980U 22025AA  22137.58335648  .00049118  00000-0  30816-2 0  9994,2 51980  53.2117 168.5335 0001633  55.2996  41.8987 15.08854708  1301,6917.835,95.437,540.83,538.571,0.0
51980.0,STARLINK-3649,PAYLOAD,2022-05-17 20:00:01,15.08870233,0.0001561,53.2124,167.4096,62.2961,313.5464,-0.0010122,-0.00016374,0.0,0 STARLINK-3649,1 51980U 22025AA  22137.83334491 -.00016374  00000-0 -10122-2 0  9995,2 51980  53.2124 167.4096 0001561  62.2961 313.5464 15.08870233 12022,6917.788000000001,95.436,540.7330000000002,538.573,0.0
51980.0,STARLINK-3649,PAYLOAD,2022-05-17 22:00:01,15.08867152,0.000156,53.2123,167.0351,63.7433,45.0713,-0.0012720999999999,-0.00020492,0.0,0 STARLINK-3649,1 51980U 22025AA  22137.91668981 -.00020492  00000-0 -12721-2 0  9991,2 51980  53.2123 167.0351 0001560  63.7433  45.0713 15.08867152  1309,6917.797,95.436,540.742,538.5830000000002,0.0
51980.0,STARLINK-3649,PAYLOAD,2022-05-18 04:00:01,15.08880222,0.0001682,53.2127,165.9131,66.6607,320.8633,-0.008475,-0.00132838,0.0,0 STARLINK-3649,1 51980U 22025AA  22138.16668981 -.00132838  00000-0 -84750-2 0  9998,2 51980  53.2127 165.9131 0001682  66.6607 320.8633 15.08880222 12070,6917.757,95.435,540.786,538.4590000000002,0.0
51980.0,STARLINK-3649,PAYLOAD,2022-05-18 12:00:00,15.08741793,0.0001779,53.2125,164.4181,60.554,338.5075,0.0048303,0.00077222,0.0,0 STARLINK-3649,1 51980U 22025AA  22138.50001157  .00077222  00000-0  48303-2 0  9999,2 51980  53.2125 164.4181 0001779  60.5540 338.5075 15.08741793 12124,6918.181,95.444,541.276,538.815,0.0
51980.0,STARLINK-3649,PAYLOAD,2022-05-18 14:00:01,15.08750757,0.000173,53.2122,164.0438,58.2303,73.7053,0.0049495,0.00079176,0.0,0 STARLINK-3649,1 51980U 22025AA  22138.58334491  .00079176  00000-0  49495-2 0  9990,2 51980  53.2122 164.0438 0001730  58.2303  73.7053 15.08750757  1302,6918.153,95.443,541.215,538.821,0.0
51980.0,STARLINK-3649,PAYLOAD,2022-05-18 22:00:00,15.08776736,0.0001469,53.2124,162.5458,64.5679,78.9006,0.0057258,0.00091869,0.0,0 STARLINK-3649,1 51980U 22025AA  22138.91667824  .00091869  00000-0  57258-2 0  9995,2 51980  53.2124 162.5458 0001469  64.5679  78.9006 15.08776736  1304,6918.074000000001,95.442,540.955,538.923,0.0
51980.0,STARLINK-3649,PAYLOAD,2022-05-19 04:00:00,15.08848541,0.0001484,53.2128,161.4241,63.7704,358.3473,-0.00088358,-0.00014326,0.0,0 STARLINK-3649,1 51980U 22025AA  22139.16667824 -.00014326  00000-0 -88358-3 0  9994,2 51980  53.2128 161.4241 0001484  63.7704 358.3473 15.08848541 12223,6917.854,95.437,540.746,538.693,0.0
51980.0,STARLINK-3649,PAYLOAD,2022-05-19 14:00:01,15.08838626,0.0001573,53.2123,159.5544,55.8579,110.8206,0.0010878,0.00017066,0.0,0 STARLINK-3649,1 51980U 22025AA  22139.58335648  .00017066  00000-0  10878-2 0  9999,2 51980  53.2123 159.5544 0001573  55.8579 110.8206 15.08838626  1308,6917.885,95.438,540.8380000000002,538.661,0.0
51980.0,STARLINK-3649,PAYLOAD,2022-05-19 20:00:01,15.08837409,0.0001426,53.2126,158.4307,63.7486,21.5734,0.0012368,0.00019449,0.0,0 STARLINK-3649,1 51980U 22025AA  22139.83334491  .00019449  00000-0  12368-2 0  9995,2 51980  53.2126 158.4307 0001426  63.7486  21.5734 15.08837409 12324,6917.888000000001,95.438,540.74,538.7669999999998,0.0
51980.0,STARLINK-3649,PAYLOAD,2022-05-19 22:00:00,15.0882843,0.0001415,53.2125,158.0563,64.8412,113.3842,0.0028001,0.00044543,0.0,0 STARLINK-3649,1 51980U 22025AA  22139.91667824  .00044543  00000-0  28001-2 0  9997,2 51980  53.2125 158.0563 0001415  64.8412 113.3842 15.08828430  1302,6917.916,95.438,540.76,538.802,0.0
51980.0,STARLINK-3649,PAYLOAD,2022-05-20 14:00:01,15.08868669,0.0001613,53.2123,155.065,58.6591,142.7717,-0.0024537,-0.00039158,0.0,0 STARLINK-3649,1 51980U 22025AA  22140.58334491 -.00039158  00000-0 -24537-2 0  9991,2 51980  53.2123 155.0650 0001613  58.6591 142.7717 15.08868669  1308,6917.793000000002,95.436,540.774,538.5419999999998,0.0
51980.0,STARLINK-3649,PAYLOAD,2022-05-20 20:00:01,15.08831299,0.0001535,53.2168,153.9334,64.1965,55.9534,0.00053604,8.251e-05,0.0,0 STARLINK-3649,1 51980U 22025AA  22140.83334491  .00008251  00000-0  53604-3 0  9995,2 51980  53.2168 153.9334 0001535  64.1965  55.9534 15.08831299 12485,6917.906999999997,95.438,540.8340000000002,538.71,0.0
51980.0,STARLINK-3649,PAYLOAD,2022-05-20 22:00:00,15.08836424,0.0001543,53.217,153.558,65.80199999999999,147.2442,-1.3349e-07,-2.9e-06,0.0,0 STARLINK-3649,1 51980U 22025AA  22140.91667824 -.00000290  00000-0 -13349-6 0  9995,2 51980  53.2170 153.5580 0001543  65.8020 147.2442 15.08836424  1303,6917.891,95.438,540.8240000000002,538.689,0.0
